{"spkid": "20679885", "covariance": {"epoch": "2459548.5", "data": [["4.820155060359287E-16", "-7.418049910489067E-16", "-8.819199454239039E-14", "1.524243371440719E-14", "-2.634085810651494E-14", "1.693232150273529E-16"], ["-7.418049910489067E-16", "1.152803256824103E-15", "1.501538921344749E-13", "-2.891881826560603E-14", "6.005406781248771E-14", "-2.478376555051754E-16"], ["-8.819199454239039E-14", "1.501538921344749E-13", "8.831937307047287E-11", "-2.700203804920225E-11", "8.690780505036831E-11", "-5.327408712687533E-13"], ["1.524243371440719E-14", "-2.891881826560603E-14", "-2.700203804920225E-11", "1.724192564087285E-8", "-1.725670935714144E-8", "6.549808925863489E-10"], ["-2.634085810651494E-14", "6.005406781248771E-14", "8.690780505036831E-11", "-1.725670935714144E-8", "1.732215157755497E-8", "-6.550644924263148E-10"], ["1.693232150273529E-16", "-2.478376555051754E-16", "-5.327408712687533E-13", "6.549808925863489E-10", "-6.550644924263148E-10", "3.400854954091465E-11"]], "elements": [{"units": null, "value": ".4934207091087869", "title": "eccentricity", "sigma": 2.19548515375515e-08, "name": "e", "label": "e"}, {"units": "au", "value": ".8161650636014861", "title": "perihelion distance", "name": "q", "sigma": 3.39529565255237e-08, "label": "q"}, {"label": "tp", "units": "TDB", "title": "time of perihelion passage", "value": "2459508.331685422876", "sigma": 9.3978387446515e-06, "name": "tp"}, {"label": "node", "name": "om", "sigma": 0.000131308513207914, "value": "115.3898813275556", "title": "longitude of the ascending node", "units": "deg"}, {"label": "peri", "units": "deg", "title": "argument of perihelion", "value": "299.0406210905435", "sigma": 0.000131613645103975, "name": "w"}, {"title": "inclination", "value": "1.420725762477735", "units": "deg", "name": "i", "sigma": 5.83168496584946e-06, "label": "i"}], "labels": ["e", "q", "tp", "node", "peri", "i"]}, "elements": [{"title": "eccentricity", "value": ".4936049722875757", "units": null, "name": "e", "sigma": "2.1951E-8", "label": "e"}, {"sigma": "6.7872E-9", "name": "a", "title": "semi-major axis", "value": "1.611069229397432", "units": "au", "label": "a"}, {"label": "q", "sigma": "3.3943E-8", "name": "q", "value": ".8158374470673466", "title": "perihelion distance", "units": "au"}, {"label": "i", "sigma": "5.8319E-6", "name": "i", "value": "1.420673864915572", "title": "inclination; angle with respect to x-y ecliptic plane", "units": "deg"}, {"name": "om", "sigma": ".00013123", "units": "deg", "title": "longitude of the ascending node", "value": "115.3333753412046", "label": "node"}, {"name": "w", "sigma": ".00013153", "units": "deg", "title": "argument of perihelion", "value": "299.06156142167", "label": "peri"}, {"label": "M", "name": "ma", "sigma": "7.7724E-6", "title": "mean anomaly", "value": "95.48483404907407", "units": "deg"}, {"label": "tp", "units": "TDB", "value": "2461002.392175825709", "title": "time of perihelion passage", "name": "tp", "sigma": "1.5134E-5"}, {"sigma": "4.72E-6", "name": "per", "value": "746.9125061901523", "title": "sidereal orbital period", "units": "d", "label": "period"}, {"units": "deg/d", "value": ".481984164164403", "title": "mean motion", "name": "n", "sigma": "3.0458E-9", "label": "n"}, {"label": "Q", "units": "au", "title": "aphelion distance", "value": "2.406301011727517", "sigma": "1.0137E-8", "name": "ad"}], "epoch": "2461200.5"}